{
    "links": {
        "self": "http://www.neowsapp.com/rest/v1/neo/3554416?api_key=iIulBulltgU6a56xZRHN4H3l9WmuAYTsLGpBGhQ2"
    },
    "id": "3554416",
    "neo_reference_id": "3554416",
    "name": "(2010 YD)",
    "designation": "2010 YD",
    "nasa_jpl_url": "http://ssd.jpl.nasa.gov/sbdb.cgi?sstr=3554416",
    "absolute_magnitude_h": 26.6,
    "estimated_diameter": {
        "kilometers": {
            "estimated_diameter_min": 0.0127219879,
            "estimated_diameter_max": 0.0284472297
        },
        "meters": {
            "estimated_diameter_min": 12.7219878539,
            "estimated_diameter_max": 28.4472296503
        },
        "miles": {
            "estimated_diameter_min": 0.0079050743,
            "estimated_diameter_max": 0.0176762835
        },
        "feet": {
            "estimated_diameter_min": 41.7388066307,
            "estimated_diameter_max": 93.330808926
        }
    },
    "is_potentially_hazardous_asteroid": false,
    "close_approach_data": [
        {
            "close_approach_date": "1967-04-06",
            "close_approach_date_full": "1967-Apr-06 10:46",
            "epoch_date_close_approach": -86447640000,
            "relative_velocity": {
                "kilometers_per_second": "18.5756017945",
                "kilometers_per_hour": "66872.1664603264",
                "miles_per_hour": "41551.7636541956"
            },
            "miss_distance": {
                "astronomical": "0.2905276368",
                "lunar": "113.0152507152",
                "kilometers": "43462315.641413616",
                "miles": "27006230.6440192608"
            },
            "orbiting_body": "Earth"
        },
        {
            "close_approach_date": "1967-06-12",
            "close_approach_date_full": "1967-Jun-12 03:48",
            "epoch_date_close_approach": -80683920000,
            "relative_velocity": {
                "kilometers_per_second": "17.0757607479",
                "kilometers_per_hour": "61472.7386924173",
                "miles_per_hour": "38196.7692169634"
            },
            "miss_distance": {
                "astronomical": "0.0892164677",
                "lunar": "34.7052059353",
                "kilometers": "13346593.536843799",
                "miles": "8293188.6635264662"
            },
            "orbiting_body": "Mars"
        },
        {
            "close_approach_date": "2008-03-21",
            "close_approach_date_full": "2008-Mar-21 13:57",
            "epoch_date_close_approach": 1206107820000,
            "relative_velocity": {
                "kilometers_per_second": "12.5378036527",
                "kilometers_per_hour": "45136.0931496451",
                "miles_per_hour": "28045.8129906781"
            },
            "miss_distance": {
                "astronomical": "0.1104585473",
                "lunar": "42.9683748997",
                "kilometers": "16524363.399374251",
                "miles": "10267763.2938606238"
            },
            "orbiting_body": "Earth"
        },
        {
            "close_approach_date": "2011-01-02",
            "close_approach_date_full": "2011-Jan-02 12:50",
            "epoch_date_close_approach": 1293972600000,
            "relative_velocity": {
                "kilometers_per_second": "9.3587203226",
                "kilometers_per_hour": "33691.3931613605",
                "miles_per_hour": "20934.5214896243"
            },
            "miss_distance": {
                "astronomical": "0.0170880318",
                "lunar": "6.6472443702",
                "kilometers": "2556333.159772266",
                "miles": "1588431.7689226308"
            },
            "orbiting_body": "Earth"
        }
    ],
    "orbital_data": {
        "orbit_id": "13",
        "orbit_determination_date": "2017-04-06 08:55:08",
        "first_observation_date": "2010-12-25",
        "last_observation_date": "2011-01-04",
        "data_arc_in_days": 10,
        "observations_used": 44,
        "orbit_uncertainty": "7",
        "minimum_orbit_intersection": ".001575",
        "jupiter_tisserand_invariant": "3.604",
        "epoch_osculation": "2459000.5",
        "eccentricity": ".5381989510970964",
        "semi_major_axis": "2.041940059986101",
        "inclination": ".4385979702134",
        "ascending_node_longitude": "93.92082952717881",
        "orbital_period": "1065.768576173926",
        "perihelion_distance": ".9429700614984395",
        "perihelion_argument": "39.76132503118805",
        "aphelion_distance": "3.140910058473763",
        "perihelion_time": "2458783.967386737959",
        "mean_anomaly": "73.14133904583576",
        "mean_motion": ".3377844008991032",
        "equinox": "J2000",
        "orbit_class": {
            "orbit_class_type": "APO",
            "orbit_class_description": "Near-Earth asteroid orbits which cross the Earth’s orbit similar to that of 1862 Apollo",
            "orbit_class_range": "a (semi-major axis) > 1.0 AU; q (perihelion) < 1.017 AU"
        }
    },
    "is_sentry_object": false
}